{"type": "FeatureCollection", "features": [ {"type": "Feature", "properties": {"norad_id": 66807, "name": "STARLINK-36000", "group": "last-30-days", "lat": -35.55515742692093, "lon": 163.89386381586135, "alt_km": 364.1124100419838, "timestamp": "2025-12-18T23:35:47.781764+00:00", "meta": {"OBJECT_NAME": "STARLINK-36000", "OBJECT_ID": "2025-278S", "EPOCH": "2025-12-18T16:00:00.999936", "MEAN_MOTION": 15.70263554, "ECCENTRICITY": 0.00016425, "INCLINATION": 42.9991, "RA_OF_ASC_NODE": 215.8891, "ARG_OF_PERICENTER": 255.3266, "MEAN_ANOMALY": 55.523, "EPHEMERIS_TYPE": 0, "CLASSIFICATION_TYPE": "U", "NORAD_CAT_ID": 66807, "ELEMENT_SET_NO": 999, "REV_AT_EPOCH": 397, "BSTAR": -0.017318286, "MEAN_MOTION_DOT": -0.01922772, "MEAN_MOTION_DDOT": 0}, "tle": {"line1": "1 66807U 25278S   25352.66667824 -.01922772  00000+0 -17318-1 0  9995", "line2": "2 66807  42.9991 215.8891 0001642 255.3266  55.5230 15.70263554  3976"}}, "geometry": {"type": "Point", "coordinates": [163.89386381586135, -35.55515742692093]}}, {"type": "Feature", "properties": {"norad_id": 66808, "name": "STARLINK-36071", "group": "last-30-days", "lat": -34.700018996189044, "lon": 165.982059793611, "alt_km": 363.9693343088775, "timestamp": "2025-12-18T23:35:47.781774+00:00", "meta": {"OBJECT_NAME": "STARLINK-36071", "OBJECT_ID": "2025-278T", "EPOCH": "2025-12-18T16:00:00.999936", "MEAN_MOTION": 15.70271529, "ECCENTRICITY": 0.00017559, "INCLINATION": 42.999, "RA_OF_ASC_NODE": 215.8843, "ARG_OF_PERICENTER": 258.9388, "MEAN_ANOMALY": 53.8208, "EPHEMERIS_TYPE": 0, "CLASSIFICATION_TYPE": "U", "NORAD_CAT_ID": 66808, "ELEMENT_SET_NO": 999, "REV_AT_EPOCH": 391, "BSTAR": -0.017390732, "MEAN_MOTION_DOT": -0.01930559, "MEAN_MOTION_DDOT": 0}, "tle": {"line1": "1 66808U 25278T   25352.66667824 -.01930559  00000+0 -17391-1 0  9999", "line2": "2 66808  42.9990 215.8843 0001755 258.9388  53.8208 15.70271529  3913"}}, "geometry": {"type": "Point", "coordinates": [165.982059793611, -34.700018996189044]}}, {"type": "Feature", "properties": {"norad_id": 66809, "name": "STARLINK-35979", "group": "last-30-days", "lat": -31.928501479525952, "lon": 171.9931264369712, "alt_km": 363.91363764650123, "timestamp": "2025-12-18T23:35:47.781784+00:00", "meta": {"OBJECT_NAME": "STARLINK-35979", "OBJECT_ID": "2025-278U", "EPOCH": "2025-12-18T14:00:03.000384", "MEAN_MOTION": 15.70603491, "ECCENTRICITY": 0.00014524, "INCLINATION": 42.9993, "RA_OF_ASC_NODE": 216.3698, "ARG_OF_PERICENTER": 255.8856, "MEAN_ANOMALY": 311.0635, "EPHEMERIS_TYPE": 0, "CLASSIFICATION_TYPE": "U", "NORAD_CAT_ID": 66809, "ELEMENT_SET_NO": 999, "REV_AT_EPOCH": 389, "BSTAR": -0.016959396, "MEAN_MOTION_DOT": -0.01911483, "MEAN_MOTION_DDOT": 0}, "tle": {"line1": "1 66809U 25278U   25352.58336806 -.01911483  00000+0 -16959-1 0  9998", "line2": "2 66809  42.9993 216.3698 0001452 255.8856 311.0635 15.70603491  3898"}}, "geometry": {"type": "Point", "coordinates": [171.9931264369712, -31.928501479525952]}}, {"type": "Feature", "properties": {"norad_id": 66810, "name": "STARLINK-36046", "group": "last-30-days", "lat": -33.80800019606411, "lon": 168.03005801741173, "alt_km": 363.9207836214064, "timestamp": "2025-12-18T23:35:47.781794+00:00", "meta": {"OBJECT_NAME": "STARLINK-36046", "OBJECT_ID": "2025-278V", "EPOCH": "2025-12-18T14:00:03.000384", "MEAN_MOTION": 15.70603905, "ECCENTRICITY": 0.00015072, "INCLINATION": 42.999, "RA_OF_ASC_NODE": 216.3807, "ARG_OF_PERICENTER": 256.4668, "MEAN_ANOMALY": 306.6467, "EPHEMERIS_TYPE": 0, "CLASSIFICATION_TYPE": "U", "NORAD_CAT_ID": 66810, "ELEMENT_SET_NO": 999, "REV_AT_EPOCH": 366, "BSTAR": -0.016950366, "MEAN_MOTION_DOT": -0.01910652, "MEAN_MOTION_DDOT": 0}, "tle": {"line1": "1 66810U 25278V   25352.58336806 -.01910652  00000+0 -16950-1 0  9998", "line2": "2 66810  42.9990 216.3807 0001507 256.4668 306.6467 15.70603905  3666"}}, "geometry": {"type": "Point", "coordinates": [168.03005801741173, -33.80800019606411]}}, {"type": "Feature", "properties": {"norad_id": 66811, "name": "STARLINK-36045", "group": "last-30-days", "lat": -32.88181577587448, "lon": 170.03737636457535, "alt_km": 364.0682238296322, "timestamp": "2025-12-18T23:35:47.781806+00:00", "meta": {"OBJECT_NAME": "STARLINK-36045", "OBJECT_ID": "2025-278W", "EPOCH": "2025-12-18T14:00:03.000384", "MEAN_MOTION": 15.70531257, "ECCENTRICITY": 0.00013812, "INCLINATION": 42.9991, "RA_OF_ASC_NODE": 216.3754, "ARG_OF_PERICENTER": 251.6525, "MEAN_ANOMALY": 313.4372, "EPHEMERIS_TYPE": 0, "CLASSIFICATION_TYPE": "U", "NORAD_CAT_ID": 66811, "ELEMENT_SET_NO": 999, "REV_AT_EPOCH": 389, "BSTAR": -0.016282232, "MEAN_MOTION_DOT": -0.01803484, "MEAN_MOTION_DDOT": 0}, "tle": {"line1": "1 66811U 25278W   25352.58336806 -.01803484  00000+0 -16282-1 0  9991", "line2": "2 66811  42.9991 216.3754 0001381 251.6525 313.4372 15.70531257  3894"}}, "geometry": {"type": "Point", "coordinates": [170.03737636457535, -32.88181577587448]}}, {"type": "Feature", "properties": {"norad_id": 66812, "name": "STARLINK-36054", "group": "last-30-days", "lat": -30.943266765169867, "lon": 173.91412711582427, "alt_km": 363.82845053277015, "timestamp": "2025-12-18T23:35:47.781818+00:00", "meta": {"OBJECT_NAME": "STARLINK-36054", "OBJECT_ID": "2025-278X", "EPOCH": "2025-12-18T14:00:03.000384", "MEAN_MOTION": 15.70604727, "ECCENTRICITY": 0.00015241, "INCLINATION": 42.9994, "RA_OF_ASC_NODE": 216.3658, "ARG_OF_PERICENTER": 257.1019, "MEAN_ANOMALY": 311.7628, "EPHEMERIS_TYPE": 0, "CLASSIFICATION_TYPE": "U", "NORAD_CAT_ID": 66812, "ELEMENT_SET_NO": 999, "REV_AT_EPOCH": 389, "BSTAR": -0.016967168, "MEAN_MOTION_DOT": -0.01912403, "MEAN_MOTION_DDOT": 0}, "tle": {"line1": "1 66812U 25278X   25352.58336806 -.01912403  00000+0 -16967-1 0  9994", "line2": "2 66812  42.9994 216.3658 0001524 257.1019 311.7628 15.70604727  3897"}}, "geometry": {"type": "Point", "coordinates": [173.91412711582427, -30.943266765169867]}}, {"type": "Feature", "properties": {"norad_id": 66813, "name": "STARLINK-36042", "group": "last-30-days", "lat": -29.93126288151313, "lon": 175.79242607479517, "alt_km": 363.8439293138181, "timestamp": "2025-12-18T23:35:47.781828+00:00", "meta": {"OBJECT_NAME": "STARLINK-36042", "OBJECT_ID": "2025-278Y", "EPOCH": "2025-12-18T16:00:00.999936", "MEAN_MOTION": 15.70273085, "ECCENTRICITY": 0.0001646, "INCLINATION": 42.999, "RA_OF_ASC_NODE": 215.8598, "ARG_OF_PERICENTER": 262.2782, "MEAN_ANOMALY": 60.0673, "EPHEMERIS_TYPE": 0, "CLASSIFICATION_TYPE": "U", "NORAD_CAT_ID": 66813, "ELEMENT_SET_NO": 999, "REV_AT_EPOCH": 391, "BSTAR": -0.017422213, "MEAN_MOTION_DOT": -0.01933678, "MEAN_MOTION_DDOT": 0}, "tle": {"line1": "1 66813U 25278Y   25352.66667824 -.01933678  00000+0 -17422-1 0  9995", "line2": "2 66813  42.9990 215.8598 0001646 262.2782  60.0673 15.70273085  3916"}}, "geometry": {"type": "Point", "coordinates": [175.79242607479517, -29.93126288151313]}}, {"type": "Feature", "properties": {"norad_id": 66814, "name": "STARLINK-35984", "group": "last-30-days", "lat": -23.351198211981085, "lon": -173.67814742393483, "alt_km": 363.5658006651993, "timestamp": "2025-12-18T23:35:47.781838+00:00", "meta": {"OBJECT_NAME": "STARLINK-35984", "OBJECT_ID": "2025-278Z", "EPOCH": "2025-12-18T14:00:03.000384", "MEAN_MOTION": 15.70604253, "ECCENTRICITY": 0.00015631, "INCLINATION": 42.9989, "RA_OF_ASC_NODE": 216.3311, "ARG_OF_PERICENTER": 255.3375, "MEAN_ANOMALY": 326.9455, "EPHEMERIS_TYPE": 0, "CLASSIFICATION_TYPE": "U", "NORAD_CAT_ID": 66814, "ELEMENT_SET_NO": 999, "REV_AT_EPOCH": 398, "BSTAR": -0.016942509, "MEAN_MOTION_DOT": -0.01909934, "MEAN_MOTION_DDOT": 0}, "tle": {"line1": "1 66814U 25278Z   25352.58336806 -.01909934  00000+0 -16943-1 0  9995", "line2": "2 66814  42.9989 216.3311 0001563 255.3375 326.9455 15.70604253  3987"}}, "geometry": {"type": "Point", "coordinates": [-173.67814742393483, -23.351198211981085]}}, {"type": "Feature", "properties": {"norad_id": 66815, "name": "STARLINK-35985", "group": "last-30-days", "lat": -24.501282247089414, "lon": -175.35227361782995, "alt_km": 363.67018895180536, "timestamp": "2025-12-18T23:35:47.781848+00:00", "meta": {"OBJECT_NAME": "STARLINK-35985", "OBJECT_ID": "2025-278AA", "EPOCH": "2025-12-18T16:00:00.999936", "MEAN_MOTION": 15.70267618, "ECCENTRICITY": 0.00017557, "INCLINATION": 42.9993, "RA_OF_ASC_NODE": 215.8346, "ARG_OF_PERICENTER": 259.2751, "MEAN_ANOMALY": 72.6571, "EPHEMERIS_TYPE": 0, "CLASSIFICATION_TYPE": "U", "NORAD_CAT_ID": 66815, "ELEMENT_SET_NO": 999, "REV_AT_EPOCH": 400, "BSTAR": -0.017344669, "MEAN_MOTION_DOT": -0.01925748, "MEAN_MOTION_DDOT": 0}, "tle": {"line1": "1 66815U 25278AA  25352.66667824 -.01925748  00000+0 -17345-1 0  9990", "line2": "2 66815  42.9993 215.8346 0001755 259.2751  72.6571 15.70267618  4007"}}, "geometry": {"type": "Point", "coordinates": [-175.35227361782995, -24.501282247089414]}}, {"type": "Feature", "properties": {"norad_id": 66816, "name": "STARLINK-36098", "group": "last-30-days", "lat": -28.89024130134766, "lon": 177.63581938111275, "alt_km": 363.82117411729905, "timestamp": "2025-12-18T23:35:47.781860+00:00", "meta": {"OBJECT_NAME": "STARLINK-36098", "OBJECT_ID": "2025-278AB", "EPOCH": "2025-12-18T14:00:03.000384", "MEAN_MOTION": 15.70605009, "ECCENTRICITY": 0.00015184, "INCLINATION": 42.9991, "RA_OF_ASC_NODE": 216.3557, "ARG_OF_PERICENTER": 254.2821, "MEAN_ANOMALY": 318.4148, "EPHEMERIS_TYPE": 0, "CLASSIFICATION_TYPE": "U", "NORAD_CAT_ID": 66816, "ELEMENT_SET_NO": 999, "REV_AT_EPOCH": 373, "BSTAR": -0.016952663, "MEAN_MOTION_DOT": -0.0191097, "MEAN_MOTION_DDOT": 0}, "tle": {"line1": "1 66816U 25278AB  25352.58336806 -.01910970  00000+0 -16953-1 0  9990", "line2": "2 66816  42.9991 216.3557 0001518 254.2821 318.4148 15.70605009  3736"}}, "geometry": {"type": "Point", "coordinates": [177.63581938111275, -28.89024130134766]}}]}